[{"OBJECT_NAME":"FOSSASAT-2E18 (TAT-A)","OBJECT_ID":"2025-009CF","EPOCH":"2026-03-09T17:01:45.499296","MEAN_MOTION":15.20457243,"ECCENTRICITY":0.00051914,"INCLINATION":97.4018,"RA_OF_ASC_NODE":148.8446,"ARG_OF_PERICENTER":339.5047,"MEAN_ANOMALY":20.598,"EPHEMERIS_TYPE":0,"CLASSIFICATION_TYPE":"U","NORAD_CAT_ID":62686,"ELEMENT_SET_NO":999,"REV_AT_EPOCH":6357,"BSTAR":0.00019425046,"MEAN_MOTION_DOT":4.172e-5,"MEAN_MOTION_DDOT":0},{"OBJECT_NAME":"COSMOS 1275 DEB","OBJECT_ID":"1981-053GB","EPOCH":"2026-03-09T12:07:35.563872","MEAN_MOTION":15.18010704,"ECCENTRICITY":0.0001087,"INCLINATION":82.9638,"RA_OF_ASC_NODE":94.4677,"ARG_OF_PERICENTER":59.5109,"MEAN_ANOMALY":300.6233,"EPHEMERIS_TYPE":0,"CLASSIFICATION_TYPE":"U","NORAD_CAT_ID":13481,"ELEMENT_SET_NO":999,"REV_AT_EPOCH":25258,"BSTAR":0.0069311321,"MEAN_MOTION_DOT":0.00143562,"MEAN_MOTION_DDOT":0}]
